232P/Hill,e,14.6307,56.0306,53.5530,4.486947,0.1036997,0.33484555,348.6340,12/18.0/2018,2000,g 11.5,4.0
# From MPC 92986
233P/La Sagra,e,11.2844,74.9276,27.0989,3.029424,0.1869235,0.41150020,237.7735,12/18.0/2018,2000,g 15.0,4.0
# From MPC110497
234P/LINEAR,e,11.5152,179.6256,357.6824,3.808784,0.1325942,0.25362941,75.0886,12/18.0/2018,2000,g 12.0,4.0
# From MPC110497
235P/LINEAR,e,8.8993,204.4473,333.8264,3.997399,0.1233212,0.31657989,33.9335,12/18.0/2018,2000,g 12.0,4.0
# From MPC107688
236P/LINEAR,e,16.3339,245.6704,119.2421,3.733295,0.1366362,0.50792425,53.6804,12/18.0/2018,2000,g 14.0,4.0
# From MPC109593
237P/LINEAR,e,14.0249,245.4226,25.1116,3.511975,0.1497535,0.43475402,119.3600,12/18.0/2018,2000,g 14.5,2.0
# From MPC107688
238P/Read,e,1.2645,51.6443,324.8120,3.163189,0.1751928,0.25232412,137.8548,12/18.0/2018,2000,g 14.5,4.0
# From MPC112394
239P/LINEAR,e,11.3056,255.9082,220.3780,4.470880,0.1042592,0.63106259,357.5855,12/18.0/2018,2000,g 17.5,2.0
# From MPC109593
240P/NEAT,e,23.5041,74.9264,352.0809,3.871461,0.1293873,0.44886772,27.9697,12/18.0/2018,2000,g 11.0,4.0
# From MPC 75729
241P/LINEAR,e,20.9079,305.6646,110.5566,4.961264,0.0891899,0.60893842,275.1495,12/18.0/2018,2000,g 13.5,4.0
# From MPC 81861
242P/Spahr,e,32.4870,180.5983,246.4793,5.474888,0.0769381,0.27756395,189.4918,12/18.0/2018,2000,g  8.0,4.0
# From MPC111774
243P/NEAT,e,7.6415,87.6583,283.5559,3.831370,0.1314234,0.35938321,14.9809,12/18.0/2018,2000,g 12.5,4.0
# From MPC 88331
244P/Scotti,e,2.2583,354.0042,92.8476,4.896453,0.0909665,0.19749968,229.8833,12/18.0/2018,2000,g  9.0,4.0
# From MPC111774
245P/WISE,e,21.1988,316.6762,316.6986,4.039218,0.1214110,0.45776855,37.9166,12/18.0/2018,2000,g 14.0,4.0
# From MPC 93589
246P/NEAT,e,15.9870,78.7505,176.1070,4.018833,0.1223360,0.28671282,262.4806,12/18.0/2018,2000,g 10.5,4.0
# From MPC112394
247P/LINEAR,e,13.6615,54.0107,47.4493,3.971013,0.1245524,0.62501733,1.9799,12/18.0/2018,2000,g 16.5,2.0
# From MPC 75730
248P/Gibbs,e,6.3487,207.7619,210.0192,5.987477,0.0672726,0.63780694,193.8384,12/18.0/2018,2000,g 14.0,4.0
# From MPC105243
249P/LINEAR,e,8.3968,239.1899,65.5768,2.762035,0.2147139,0.81990248,239.8532,12/18.0/2018,2000,g 15.5,4.0
# From MPC110497
250P/Larson,e,13.2912,73.6779,45.1460,3.732073,0.1367033,0.40687479,43.5603,12/18.0/2018,2000,g 14.5,4.0
# From MPC104795
251P/LINEAR,e,23.4196,219.4073,31.1934,3.507813,0.1500201,0.50588584,77.9242,12/18.0/2018,2000,g 16.5,2.0
# From MPC102956
252P/LINEAR,e,10.4184,190.9535,343.3455,3.048097,0.1852085,0.67248574,186.6951,12/18.0/2018,2000,g 17.5,4.0
# From MPC112394
253P/PANSTARRS,e,4.9404,146.8783,230.7188,3.469761,0.1524947,0.41302719,34.2036,12/18.0/2018,2000,g 14.5,4.0
# From MPC 81473
254P/McNaught,e,32.4868,129.2907,219.2312,4.627760,0.0990029,0.32212548,295.5814,12/18.0/2018,2000,g 11.0,4.0
# From NK 2214
255P/Levy,e,18.3665,279.4828,179.8638,3.037400,0.1861878,0.66936749,110.4311,12/18.0/2018,2000,g 20.0,4.0
# From MPC 84027
256P/LINEAR,e,27.6389,81.3491,124.3160,4.634501,0.0987870,0.41915363,207.4751,12/18.0/2018,2000,g 14.0,2.0
# From MPC 88332
257P/Catalina,e,20.2379,207.7833,117.7905,3.759034,0.1352352,0.43071357,274.3664,12/18.0/2018,2000,g 11.5,4.0
# From MPC 79655
258P/PANSTARRS,e,6.7443,126.2539,26.1225,4.404641,0.1066199,0.20968340,301.4041,12/18.0/2018,2000,g 13.0,4.0
# From MPC106349
259P/Garradd,e,15.8891,51.4821,257.5195,2.731988,0.2182660,0.33795358,109.3242,12/18.0/2018,2000,g 15.5,4.0
# From MPC102102
260P/McNaught,e,15.0507,349.3836,18.3308,3.623846,0.1428728,0.60898595,322.0097,12/18.0/2018,2000,g 13.5,4.0
# From MPC102102
261P/Larson,e,6.0759,291.1667,67.0937,3.488090,0.1512943,0.42275314,332.3713,12/18.0/2018,2000,g 14.0,4.0
# From MPC 82322
262P/McNaught-Russell,e,29.1180,217.9371,171.0198,6.881507,0.0545982,0.81437567,120.6093,12/18.0/2018,2000,g 13.5,4.0
# From MPC 82323
263P/Gibbs,e,11.5405,105.8064,34.5589,3.059830,0.1841442,0.58789666,81.7745,12/18.0/2018,2000,g 18.0,4.0
# From MPC102102
264P/Larsen,e,25.1506,220.9030,346.6119,3.893883,0.1282714,0.37372935,330.5098,12/18.0/2018,2000,g 13.0,4.0
# From MPC 79870
265P/LINEAR,e,14.3849,343.3763,33.3060,4.240283,0.1128787,0.64893399,271.5232,12/18.0/2018,2000,g 14.5,4.0
# From MPC 90771
266P/Christensen,e,3.4273,5.0085,97.9249,3.533666,0.1483768,0.33937859,287.4966,12/18.0/2018,2000,g 12.5,4.0
# From MPC 81862
267P/LONEOS,e,6.1380,228.6889,114.0819,3.212386,0.1711837,0.61364474,25.4514,12/18.0/2018,2000,g 19.5,4.0
# From MPC 92277
268P/Bernardi,e,16.1093,127.5934,0.2271,4.556847,0.1013228,0.46960833,134.9552,12/18.0/2018,2000,g 14.0,4.0
# From MPC104795
269P/Jedicke,e,7.0731,241.7033,226.0773,7.086770,0.0522434,0.43243351,80.1010,12/18.0/2018,2000,g 10.0,4.0
# From MPC 88332
270P/Gehrels,e,2.9168,222.9585,210.0708,6.673890,0.0571657,0.46718209,115.2461,12/18.0/2018,2000,g  8.0,4.0
# From MPC 92277
271P/van Houten-Lemmon,e,6.8588,9.2900,36.6589,7.057629,0.0525673,0.39255716,104.4361,12/18.0/2018,2000,g 11.0,4.0
# From MPC 81862
272P/NEAT,e,18.0787,109.4764,28.0782,4.450679,0.1049699,0.45447660,222.7431,12/18.0/2018,2000,g 16.0,2.0
# From MPC 82723
273P/Pons-Gambart,e,136.6120,320.4001,20.2253,31.58084,0.0055535,0.97408019,0.0000,12/16.7187/2012,2000,g 11.5,4.0
# From MPC 88332
274P/Tombaugh-Tenagra,e,15.8181,81.3385,38.5982,4.367995,0.1079645,0.43868432,229.5532,12/18.0/2018,2000,g 13.0,4.0
# From MPC 81862
275P/Hermann,e,21.3154,348.7459,174.1394,5.768490,0.0711395,0.71337051,155.2714,12/18.0/2018,2000,g 15.0,4.0
# From MPC 84935
276P/Vorobjov,e,14.8878,211.6222,200.5546,5.295486,0.0808808,0.26993015,182.2781,12/18.0/2018,2000,g 11.5,4.0
# From MPC105243
277P/LINEAR,e,16.7718,276.3374,152.1709,3.856067,0.1301629,0.50470007,263.2288,12/18.0/2018,2000,g 14.0,4.0
# From MPC105243
278P/McNaught,e,6.6838,15.4643,237.9947,3.695039,0.1387636,0.43479759,272.0317,12/18.0/2018,2000,g 14.0,4.0
# From MPC 10028
279P/La Sagra,e,5.0480,346.2260,5.7829,3.577895,0.1456340,0.39723221,129.1157,12/18.0/2018,2000,g 14.0,4.0
# From MPC 89013
280P/Larsen,e,11.7707,131.4287,104.7249,4.528432,0.1022780,0.41847112,187.2827,12/18.0/2018,2000,g 12.5,4.0
# From MPC 83145
281P/MOSS,e,4.7198,87.1722,27.1496,4.865775,0.0918282,0.17154410,221.2687,12/18.0/2018,2000,g 11.0,4.0
# From unp
282P/,e,5.8088,9.3304,217.2805,4.248025,0.1125702,0.18952826,242.9778,12/18.0/2018,2000,g 13.5,2.0
# From MPC 84027
283P/Spacewatch,e,14.4578,161.1740,22.2791,4.138060,0.1170871,0.48554470,243.5362,12/18.0/2018,2000,g 16.0,2.0
# From MPC 93589
284P/McNaught,e,11.8592,144.2906,202.7549,3.672720,0.1400304,0.37567991,219.8252,12/18.0/2018,2000,g 13.0,4.0
# From MPC 85339
285P/LINEAR,e,25.0119,185.4751,178.4318,4.509328,0.1029287,0.61747271,206.8427,12/18.0/2018,2000,g 15.0,4.0
# From MPC 90771
286P/Christensen,e,17.0423,283.9554,24.6871,4.114175,0.1181082,0.42454142,213.3160,12/18.0/2018,2000,g 14.0,4.0
# From MPC 96868
287P/Christensen,e,16.3109,139.0307,188.8060,4.171421,0.1156853,0.26968737,167.8657,12/18.0/2018,2000,g 13.5,4.0
# From unp
288P/,e,3.2403,83.1870,280.8777,3.047471,0.1852656,0.20117827,142.7101,12/18.0/2018,2000,g 16.0,2.0
# From MPC102102
289P/Blanpain,e,5.8979,68.9293,9.8268,3.045532,0.1854425,0.68499143,291.7549,12/18.0/2018,2000,g 10.0,4.0
# From MPC 95214
290P/Jager,e,19.1469,303.2899,180.9035,6.130919,0.0649256,0.64765140,113.1008,12/18.0/2018,2000,g 10.5,4.0
# From MPC 89314
291P/NEAT,e,6.3866,238.3510,174.8923,4.477551,0.1040263,0.44260568,193.2811,12/18.0/2018,2000,g 13.0,4.0
# From MPC110085
292P/Li,e,24.2524,91.0003,319.5624,6.115166,0.0651766,0.58720931,116.1529,12/18.0/2018,2000,g 12.5,4.0
# From MPC 92278
293P/Spacewatch,e,9.0574,78.4106,41.1684,3.640846,0.1418733,0.41820427,256.0762,12/18.0/2018,2000,g 14.5,4.0
# From MPC 89013
294P/LINEAR,e,18.2131,312.6064,235.5151,3.205620,0.1717260,0.59431296,300.4638,12/18.0/2018,2000,g 15.5,4.0
# From MPC 93589
295P/LINEAR,e,21.0879,7.5003,73.0017,5.307542,0.0806054,0.61641542,135.5704,12/18.0/2018,2000,g 12.0,4.0
# From MPC 92278
296P/Garradd,e,25.2341,263.6402,350.0551,3.498720,0.1506053,0.47845451,263.6380,12/18.0/2018,2000,g 14.0,4.0
# From MPC102956
297P/Beshore,e,10.3276,97.6613,132.3724,3.445109,0.1541344,0.31948150,241.8721,12/18.0/2018,2000,g 15.0,4.0
# From MPC105243
298P/Christensen,e,7.8718,52.8302,100.7417,3.592987,0.1447174,0.38718578,269.0617,12/18.0/2018,2000,g 15.0,4.0
# From MPC101100
299P/Catalina-PANSTARRS,e,10.4772,271.6281,323.8215,4.381416,0.1074688,0.28263579,149.6297,12/18.0/2018,2000,g 11.5,4.0
# From MPC111774
300P/Catalina,e,5.6761,95.6739,222.8485,2.699268,0.2222465,0.69146910,10.2119,12/18.0/2018,2000,g 16.0,4.0
# From MPC 89014
301P/LINEAR-NEAT,e,10.3569,351.1764,193.7163,5.734583,0.0717714,0.58670774,112.5704,12/18.0/2018,2000,g 13.0,4.0
# From MPC108598
302P/Lemmon-PANSTARRS,e,6.0320,121.7557,208.1752,4.279616,0.1113261,0.22906473,107.0710,12/18.0/2018,2000,g 12.5,4.0
# From MPC 92278
303P/NEAT,e,7.0095,347.9848,356.8555,5.053158,0.0867680,0.50903968,132.4556,12/18.0/2018,2000,g 13.5,4.0
# From MPC 92987
304P/Ory,e,2.6381,59.0692,335.0295,3.156587,0.1757428,0.60403174,254.3675,12/18.0/2018,2000,g 16.5,4.0
# From MPC101100
305P/Skiff,e,11.6365,240.1479,147.2923,4.646879,0.0983925,0.69226103,146.9676,12/18.0/2018,2000,g 18.0,4.0
# From MPC 92278
306P/LINEAR,e,8.3133,341.4357,0.8115,3.120507,0.1787996,0.59348924,288.3285,12/18.0/2018,2000,g 19.0,4.0
# From MPC 91619
307P/LINEAR,e,4.4266,158.0965,222.2581,5.799959,0.0705613,0.67319627,103.0205,12/18.0/2018,2000,g 15.0,4.0
# From MPC109148
308P/Lagerkvist-Carsenty,e,4.8489,63.1340,333.7987,6.616436,0.0579119,0.36203257,76.6005,12/18.0/2018,2000,g 13.0,2.0
# From MPC 94284
309P/LINEAR,e,17.0628,10.2858,49.9747,4.368290,0.1079535,0.61854541,151.4476,12/18.0/2018,2000,g 15.0,4.0
# From MPC 98566
310P/Hill,e,13.1394,8.9566,31.9739,4.174955,0.1155384,0.42242892,155.0937,12/18.0/2018,2000,g 13.5,4.0
# From MPC109593
311P/PANSTARRS,e,4.9673,279.2392,144.1477,2.189241,0.3042732,0.11526728,159.7741,12/18.0/2018,2000,g 17.0,4.0
# From MPC 92279
